NORAD_CAT_ID,OBJECT_NAME,OBJECT_TYPE,EPOCH,MEAN_MOTION,ECCENTRICITY,INCLINATION,RA_OF_ASC_NODE,ARG_OF_PERICENTER,MEAN_ANOMALY,BSTAR,MEAN_MOTION_DOT,MEAN_MOTION_DDOT,TLE_LINE0,TLE_LINE1,TLE_LINE2,SEMIMAJOR_AXIS,PERIOD,APOGEE,PERIGEE,DECAYED
55921.0,STARLINK-5861,PAYLOAD,2024-04-17 13:24:17,14.98328162,0.0003192,70.0001,246.9906,274.2011,85.8783,2.1667e-05,1.65e-06,0.0,0 STARLINK-5861,1 55921U 23037H   24108.55853316  .00000165  00000-0  21667-4 0  9996,2 55921  70.0001 246.9906 0003192 274.2011  85.8783 14.98328162 60302,6950.199,96.107,574.282,569.845,0.0
55921.0,STARLINK-5861,PAYLOAD,2024-04-17 18:12:41,14.9833328,0.0002934,70.0005,246.4859,268.1648,91.9175,5.8018e-05,5.99e-06,0.0,0 STARLINK-5861,1 55921U 23037H   24108.75880851  .00000599  00000-0  58018-4 0  9993,2 55921  70.0005 246.4859 0002934 268.1648  91.9175 14.98333280 59992,6950.183,96.107,574.087,570.009,0.0
55921.0,STARLINK-5861,PAYLOAD,2024-04-18 13:26:17,14.98338134,0.0002808,70.0007,244.4661,262.5478,97.5362,-0.00014682,-1.845e-05,0.0,0 STARLINK-5861,1 55921U 23037H   24109.55993005 -.00001845  00000-0 -14682-3 0  9993,2 55921  70.0007 244.4661 0002808 262.5478  97.5362 14.98338134 60111,6950.168,96.106,573.984,570.081,0.0
55921.0,STARLINK-5861,PAYLOAD,2024-04-18 18:14:42,14.98331118,0.0002732,70.0015,243.9627,257.7045,102.3808,5.1037e-05,5.16e-06,0.0,0 STARLINK-5861,1 55921U 23037H   24109.76021027  .00000516  00000-0  51037-4 0  9990,2 55921  70.0015 243.9627 0002732 257.7045 102.3808 14.98331118 60483,6950.189,96.107,573.953,570.156,0.0
55921.0,STARLINK-5861,PAYLOAD,2024-04-19 13:28:19,14.98322874,0.0002698,70.0016,241.9437,253.5689,106.5174,0.00021516,2.475e-05,0.0,0 STARLINK-5861,1 55921U 23037H   24110.56133180  .00002475  00000-0  21516-3 0  9998,2 55921  70.0016 241.9437 0002698 253.5689 106.5174 14.98322874 60267,6950.215,96.107,573.955,570.205,0.0
55921.0,STARLINK-5861,PAYLOAD,2024-04-19 18:16:42,14.98332469,0.0002722,70.0016,241.4376,263.0454,97.0395,0.00019019,2.177e-05,0.0,0 STARLINK-5861,1 55921U 23037H   24110.76160739  .00002177  00000-0  19019-3 0  9994,2 55921  70.0016 241.4376 0002722 263.0454  97.0395 14.98332469 60639,6950.185,96.107,573.942,570.158,0.0
55921.0,STARLINK-5861,PAYLOAD,2024-04-20 11:54:13,14.98295869,0.0002363,70.002,239.5876,234.6699,125.424,-0.00028676,-3.51e-05,0.0,0 STARLINK-5861,1 55921U 23037H   24111.49599427 -.00003510  00000-0 -28676-3 0  9998,2 55921  70.0020 239.5876 0002363 234.6699 125.4240 14.98295869 60742,6950.298,96.109,573.806,570.521,0.0
55921.0,STARLINK-5861,PAYLOAD,2024-04-20 13:30:21,14.98291029,0.0002305,70.0034,239.4196,240.4505,119.6425,-0.000708,-8.521e-05,0.0,0 STARLINK-5861,1 55921U 23037H   24111.56274657 -.00008521  00000-0 -70800-3 0  9994,2 55921  70.0034 239.4196 0002305 240.4505 119.6425 14.98291029 60416,6950.313,96.109,573.78,570.576,0.0
55921.0,STARLINK-5861,PAYLOAD,2024-04-20 18:18:45,14.98293515,0.000239,70.0033,238.9147,245.8418,114.2492,-0.00061499,-7.416e-05,0.0,0 STARLINK-5861,1 55921U 23037H   24111.76302878 -.00007416  00000-0 -61499-3 0  9999,2 55921  70.0033 238.9147 0002390 245.8418 114.2492 14.98293515 60788,6950.306,96.109,573.832,570.51,0.0
55921.0,STARLINK-5861,PAYLOAD,2024-04-21 13:32:21,14.98322733,0.0002323,70.003,236.8906,275.7971,84.2923,8.0924e-05,8.73e-06,0.0,0 STARLINK-5861,1 55921U 23037H   24112.56414224  .00000873  00000-0  80924-4 0  9990,2 55921  70.0030 236.8906 0002323 275.7971  84.2923 14.98322733 60563,6950.215,96.107,573.695,570.466,0.0
55921.0,STARLINK-5861,PAYLOAD,2024-04-21 18:20:45,14.98333236,0.0002044,70.0045,236.3887,244.2936,115.8012,0.00059356,6.997e-05,0.0,0 STARLINK-5861,1 55921U 23037H   24112.76441904  .00006997  00000-0  59356-3 0  9994,2 55921  70.0045 236.3887 0002044 244.2936 115.8012 14.98333236 60935,6950.183,96.107,573.469,570.627,0.0
55921.0,STARLINK-5861,PAYLOAD,2024-04-22 10:22:06,14.98338228,0.0002632,70.0035,234.706,252.8636,107.2235,0.00058375,6.88e-05,0.0,0 STARLINK-5861,1 55921U 23037H   24113.43201674  .00006880  00000-0  58375-3 0  9998,2 55921  70.0035 234.7060 0002632 252.8636 107.2235 14.98338228 60695,6950.167,96.106,573.862,570.203,0.0
55921.0,STARLINK-5861,PAYLOAD,2024-04-22 18:22:45,14.98353696,0.0002583,70.0036,233.8608,255.5691,104.5182,0.00080114,9.485e-05,0.0,0 STARLINK-5861,1 55921U 23037H   24113.76580823  .00009485  00000-0  80114-3 0  9990,2 55921  70.0036 233.8608 0002583 255.5691 104.5182 14.98353696 61081,6950.12,96.105,573.78,570.189,0.0
55921.0,STARLINK-5861,PAYLOAD,2024-04-23 12:00:14,14.98333924,0.0002865,70.0021,232.0087,265.3046,94.7786,-6.9221e-05,-9.19e-06,0.0,0 STARLINK-5861,1 55921U 23037H   24114.50017186 -.00000919  00000-0 -69221-4 0  9992,2 55921  70.0021 232.0087 0002865 265.3046  94.7786 14.98333924 61197,6950.181,96.107,574.037,570.055,0.0
55921.0,STARLINK-5861,PAYLOAD,2024-04-23 16:48:38,14.98336466,0.0002696,70.003,231.5051,260.5643,99.5211,3.0714e-05,2.74e-06,0.0,0 STARLINK-5861,1 55921U 23037H   24114.70045060  .00000274  00000-0  30714-4 0  9993,2 55921  70.0030 231.5051 0002696 260.5643  99.5211 14.98336466 60889,6950.173,96.107,573.912,570.164,0.0
55921.0,STARLINK-5861,PAYLOAD,2024-04-24 12:02:15,14.98339292,0.0002554,70.0035,229.4865,260.2115,99.8755,9.4728e-05,1.038e-05,0.0,0 STARLINK-5861,1 55921U 23037H   24115.50156763  .00001038  00000-0  94728-4 0  9999,2 55921  70.0035 229.4865 0002554 260.2115  99.8755 14.98339292 61345,6950.164,96.106,573.804,570.254,0.0
55921.0,STARLINK-5861,PAYLOAD,2024-04-24 13:38:23,14.98340197,0.0002471,70.0039,229.3195,257.1133,102.975,0.00011541,1.285e-05,0.0,0 STARLINK-5861,1 55921U 23037H   24115.56832935  .00001285  00000-0  11541-3 0  9992,2 55921  70.0039 229.3195 0002471 257.1133 102.9750 14.98340197 61018,6950.161,96.106,573.744,570.309,0.0
55921.0,STARLINK-5861,PAYLOAD,2024-04-24 16:50:39,14.98344987,0.000246,70.004,228.9826,255.1713,104.9174,0.00011258,1.251e-05,0.0,0 STARLINK-5861,1 55921U 23037H   24115.70184668  .00001251  00000-0  11258-3 0  9999,2 55921  70.0040 228.9826 0002460 255.1713 104.9174 14.98344987 61031,6950.147,96.106,573.721,570.302,0.0
55921.0,STARLINK-5861,PAYLOAD,2024-04-25 12:04:16,14.98328517,0.0002698,70.0062,226.9676,227.0747,133.0186,8.5795e-05,9.31e-06,0.0,0 STARLINK-5861,1 55921U 23037H   24116.50297285  .00000931  00000-0  85795-4 0  9990,2 55921  70.0062 226.9676 0002698 227.0747 133.0186 14.98328517 61491,6950.197,96.107,573.938,570.187,0.0
55921.0,STARLINK-5861,PAYLOAD,2024-04-25 16:52:41,14.98322175,0.0002771,70.0048,226.4617,252.3324,107.7533,5.1911e-05,5.26e-06,0.0,0 STARLINK-5861,1 55921U 23037H   24116.70325794  .00000526  00000-0  51911-4 0  9992,2 55921  70.0048 226.4617 0002771 252.3324 107.7533 14.98322175 61183,6950.217,96.108,574.008,570.156,0.0
55921.0,STARLINK-5861,PAYLOAD,2024-04-26 13:42:25,14.98335526,0.0002676,70.0034,224.2704,264.1626,95.9228,0.00020958,2.409e-05,0.0,0 STARLINK-5861,1 55921U 23037H   24117.57113352  .00002409  00000-0  20958-3 0  9991,2 55921  70.0034 224.2704 0002676 264.1626  95.9228 14.98335526 61656,6950.176,96.107,573.901,570.181,0.0
55921.0,STARLINK-5861,PAYLOAD,2024-04-26 16:54:41,14.98339093,0.0002576,70.0033,223.9332,262.1649,97.9218,0.0003041,3.538e-05,0.0,0 STARLINK-5861,1 55921U 23037H   24117.70465199  .00003538  00000-0  30410-3 0  9993,2 55921  70.0033 223.9332 0002576 262.1649  97.9218 14.98339093 61339,6950.165,96.106,573.82,570.239,0.0
55921.0,STARLINK-5861,PAYLOAD,2024-04-27 13:44:26,14.98337568,0.0002594,70.0035,221.7476,251.2393,108.8485,0.00030613,3.562e-05,0.0,0 STARLINK-5861,1 55921U 23037H   24118.57253142  .00003562  00000-0  30613-3 0  9994,2 55921  70.0035 221.7476 0002594 251.2393 108.8485 14.98337568 61806,6950.169,96.107,573.837,570.232,0.0
55921.0,STARLINK-5861,PAYLOAD,2024-04-27 16:56:42,14.98335743,0.0002625,70.0036,221.4106,250.0158,110.0719,0.00035799,4.182e-05,0.0,0 STARLINK-5861,1 55921U 23037H   24118.70605288  .00004182  00000-0  35799-3 0  9990,2 55921  70.0036 221.4106 0002625 250.0158 110.0719 14.98335743 61487,6950.175,96.107,573.865,570.216,0.0
55921.0,STARLINK-5861,PAYLOAD,2024-04-28 13:46:28,14.98327484,0.00026,70.001,219.2194,261.7941,98.2924,2.766e-05,2.37e-06,0.0,0 STARLINK-5861,1 55921U 23037H   24119.57393969  .00000237  00000-0  27660-4 0  9992,2 55921  70.0010 219.2194 0002600 261.7941  98.2924 14.98327484 61953,6950.201,96.107,573.873,570.259,0.0
55921.0,STARLINK-5861,PAYLOAD,2024-04-28 16:58:44,14.98327049,0.000282,70.0011,218.8831,263.1672,96.9166,1.296e-05,6.2e-07,0.0,0 STARLINK-5861,1 55921U 23037H   24119.70746027  .00000062  00000-0  12960-4 0  9997,2 55921  70.0011 218.8831 0002820 263.1672  96.9166 14.98327049 61633,6950.202,96.107,574.027,570.107,0.0
55921.0,STARLINK-5861,PAYLOAD,2024-04-29 12:12:20,14.9833556,0.0002856,70.0009,216.8631,264.7079,95.3755,9.411e-05,1.03e-05,0.0,0 STARLINK-5861,1 55921U 23037H   24120.50857334  .00001030  00000-0  94110-4 0  9994,2 55921  70.0009 216.8631 0002856 264.7079  95.3755 14.98335560 62098,6950.176,96.107,574.026,570.056,0.0
55921.0,STARLINK-5861,PAYLOAD,2024-04-29 13:48:28,14.98336161,0.0002735,70.0009,216.6949,261.7563,98.3285,0.00011863,1.323e-05,0.0,0 STARLINK-5861,1 55921U 23037H   24120.57533251  .00001323  00000-0  11863-3 0  9998,2 55921  70.0009 216.6949 0002735 261.7563  98.3285 14.98336161 61761,6950.174,96.107,573.94,570.138,0.0
55921.0,STARLINK-5861,PAYLOAD,2024-04-29 15:24:36,14.98338933,0.0002868,70.0008,216.5267,263.5935,96.4898,0.00011188,1.242e-05,0.0,0 STARLINK-5861,1 55921U 23037H   24120.64209060  .00001242  00000-0  11188-3 0  9994,2 55921  70.0008 216.5267 0002868 263.5935  96.4898 14.98338933 61771,6950.165,96.106,574.024,570.037,0.0
55921.0,STARLINK-5861,PAYLOAD,2024-04-30 12:14:21,14.98350925,0.00029,70.0009,214.3382,271.4203,88.6624,-9.397e-05,-1.215e-05,0.0,0 STARLINK-5861,1 55921U 23037H   24121.50996547 -.00001215  00000-0 -93970-4 0  9995,2 55921  70.0009 214.3382 0002900 271.4203  88.6624 14.98350925 62247,6950.128,96.106,574.009,569.978,0.0
